{"type": "FeatureCollection", "features": [ {"type": "Feature", "properties": {"norad_id": 31498, "name": "FENGYUN 1C DEB", "group": "fengyun-1c-debris", "lat": -74.39664087202583, "lon": -18.0232255446056, "alt_km": 1040.8810858309362, "timestamp": "2025-12-03T06:58:43.520685+00:00", "meta": {"OBJECT_NAME": "FENGYUN 1C DEB", "OBJECT_ID": "1999-025BWM", "EPOCH": "2025-11-30T09:36:20.130336", "MEAN_MOTION": 13.76941251, "ECCENTRICITY": 0.02170133, "INCLINATION": 98.4854, "RA_OF_ASC_NODE": 307.0815, "ARG_OF_PERICENTER": 178.1743, "MEAN_ANOMALY": 182.0252, "EPHEMERIS_TYPE": 0, "CLASSIFICATION_TYPE": "U", "NORAD_CAT_ID": 31498, "ELEMENT_SET_NO": 999, "REV_AT_EPOCH": 92564, "BSTAR": 0.0014956317, "MEAN_MOTION_DOT": 1.718e-05, "MEAN_MOTION_DDOT": 0}, "tle": {"line1": "1 31498U 99025BWM 25334.40023299  .00001718  00000+0  14956-2 0  9999", "line2": "2 31498  98.4854 307.0815 0217013 178.1743 182.0252 13.76941251925649"}}, "geometry": {"type": "Point", "coordinates": [-18.0232255446056, -74.39664087202583]}}, {"type": "Feature", "properties": {"norad_id": 31503, "name": "FENGYUN 1C DEB", "group": "fengyun-1c-debris", "lat": 78.81544202257314, "lon": 137.68207104526707, "alt_km": 831.3576995259673, "timestamp": "2025-12-03T06:58:43.520696+00:00", "meta": {"OBJECT_NAME": "FENGYUN 1C DEB", "OBJECT_ID": "1999-025BWS", "EPOCH": "2025-12-02T20:26:52.467360", "MEAN_MOTION": 14.22519865, "ECCENTRICITY": 0.0049245, "INCLINATION": 100.0996, "RA_OF_ASC_NODE": 201.5254, "ARG_OF_PERICENTER": 214.863, "MEAN_ANOMALY": 144.9315, "EPHEMERIS_TYPE": 0, "CLASSIFICATION_TYPE": "U", "NORAD_CAT_ID": 31503, "ELEMENT_SET_NO": 999, "REV_AT_EPOCH": 64106, "BSTAR": 0.0013567, "MEAN_MOTION_DOT": 3.011e-05, "MEAN_MOTION_DDOT": 0}, "tle": {"line1": "1 31503U 99025BWS 25336.85199615  .00003011  00000+0  13567-2 0  9998", "line2": "2 31503 100.0996 201.5254 0049245 214.8630 144.9315 14.22519865641063"}}, "geometry": {"type": "Point", "coordinates": [137.68207104526707, 78.81544202257314]}}, {"type": "Feature", "properties": {"norad_id": 31507, "name": "FENGYUN 1C DEB", "group": "fengyun-1c-debris", "lat": -57.83473469204334, "lon": 176.52195986260867, "alt_km": 781.0165513741213, "timestamp": "2025-12-03T06:58:43.520706+00:00", "meta": {"OBJECT_NAME": "FENGYUN 1C DEB", "OBJECT_ID": "1999-025BWW", "EPOCH": "2025-12-02T14:02:28.383072", "MEAN_MOTION": 14.52108864, "ECCENTRICITY": 0.01180244, "INCLINATION": 98.1939, "RA_OF_ASC_NODE": 9.0782, "ARG_OF_PERICENTER": 109.1988, "MEAN_ANOMALY": 41.4031, "EPHEMERIS_TYPE": 0, "CLASSIFICATION_TYPE": "U", "NORAD_CAT_ID": 31507, "ELEMENT_SET_NO": 999, "REV_AT_EPOCH": 97873, "BSTAR": 0.00059712018, "MEAN_MOTION_DOT": 2.601e-05, "MEAN_MOTION_DDOT": 0}, "tle": {"line1": "1 31507U 99025BWW 25336.58505073  .00002601  00000+0  59712-3 0  9998", "line2": "2 31507  98.1939   9.0782 0118024 109.1988  41.4031 14.52108864978731"}}, "geometry": {"type": "Point", "coordinates": [176.52195986260867, -57.83473469204334]}}, {"type": "Feature", "properties": {"norad_id": 31508, "name": "FENGYUN 1C DEB", "group": "fengyun-1c-debris", "lat": -66.47802679008764, "lon": 105.85127396836472, "alt_km": 683.538968345094, "timestamp": "2025-12-03T06:58:43.520717+00:00", "meta": {"OBJECT_NAME": "FENGYUN 1C DEB", "OBJECT_ID": "1999-025BWX", "EPOCH": "2025-12-01T06:00:46.047744", "MEAN_MOTION": 14.62005114, "ECCENTRICITY": 0.0032762, "INCLINATION": 98.6301, "RA_OF_ASC_NODE": 83.3005, "ARG_OF_PERICENTER": 2.4168, "MEAN_ANOMALY": 357.7184, "EPHEMERIS_TYPE": 0, "CLASSIFICATION_TYPE": "U", "NORAD_CAT_ID": 31508, "ELEMENT_SET_NO": 999, "REV_AT_EPOCH": 96756, "BSTAR": 0.0032561, "MEAN_MOTION_DOT": 0.00016436, "MEAN_MOTION_DDOT": 0}, "tle": {"line1": "1 31508U 99025BWX 25335.25053296  .00016436  00000+0  32561-2 0  9990", "line2": "2 31508  98.6301  83.3005 0032762   2.4168 357.7184 14.62005114967568"}}, "geometry": {"type": "Point", "coordinates": [105.85127396836472, -66.47802679008764]}}, {"type": "Feature", "properties": {"norad_id": 31509, "name": "FENGYUN 1C DEB", "group": "fengyun-1c-debris", "lat": 69.69644389140709, "lon": -57.83136903889118, "alt_km": 1009.4511458004754, "timestamp": "2025-12-03T06:58:43.520727+00:00", "meta": {"OBJECT_NAME": "FENGYUN 1C DEB", "OBJECT_ID": "1999-025BWY", "EPOCH": "2025-11-28T14:32:03.618816", "MEAN_MOTION": 13.94739035, "ECCENTRICITY": 0.02027381, "INCLINATION": 99.022, "RA_OF_ASC_NODE": 92.1554, "ARG_OF_PERICENTER": 256.7539, "MEAN_ANOMALY": 101.0938, "EPHEMERIS_TYPE": 0, "CLASSIFICATION_TYPE": "U", "NORAD_CAT_ID": 31509, "ELEMENT_SET_NO": 999, "REV_AT_EPOCH": 93765, "BSTAR": 0.002076858, "MEAN_MOTION_DOT": 3.258e-05, "MEAN_MOTION_DDOT": 0}, "tle": {"line1": "1 31509U 99025BWY 25332.60559744  .00003258  00000+0  20769-2 0  9991", "line2": "2 31509  99.0220  92.1554 0202738 256.7539 101.0938 13.94739035937653"}}, "geometry": {"type": "Point", "coordinates": [-57.83136903889118, 69.69644389140709]}}, {"type": "Feature", "properties": {"norad_id": 31510, "name": "FENGYUN 1C DEB", "group": "fengyun-1c-debris", "lat": -46.70992019665459, "lon": -14.068332639234244, "alt_km": 798.1351372099634, "timestamp": "2025-12-03T06:58:43.520737+00:00", "meta": {"OBJECT_NAME": "FENGYUN 1C DEB", "OBJECT_ID": "1999-025BWZ", "EPOCH": "2025-11-29T05:42:38.354688", "MEAN_MOTION": 14.24508373, "ECCENTRICITY": 0.00379271, "INCLINATION": 98.5532, "RA_OF_ASC_NODE": 332.7926, "ARG_OF_PERICENTER": 11.269, "MEAN_ANOMALY": 49.5902, "EPHEMERIS_TYPE": 0, "CLASSIFICATION_TYPE": "U", "NORAD_CAT_ID": 31510, "ELEMENT_SET_NO": 999, "REV_AT_EPOCH": 96295, "BSTAR": 0.00053902457, "MEAN_MOTION_DOT": 1.216e-05, "MEAN_MOTION_DDOT": 0}, "tle": {"line1": "1 31510U 99025BWZ 25333.23794392  .00001216  00000+0  53902-3 0  9991", "line2": "2 31510  98.5532 332.7926 0037927  11.2690  49.5902 14.24508373962950"}}, "geometry": {"type": "Point", "coordinates": [-14.068332639234244, -46.70992019665459]}}, {"type": "Feature", "properties": {"norad_id": 31511, "name": "FENGYUN 1C DEB", "group": "fengyun-1c-debris", "lat": -5.601120509266961, "lon": -35.322610069236276, "alt_km": 771.8815006265713, "timestamp": "2025-12-03T06:58:43.520747+00:00", "meta": {"OBJECT_NAME": "FENGYUN 1C DEB", "OBJECT_ID": "1999-025BXA", "EPOCH": "2025-12-01T22:08:58.354368", "MEAN_MOTION": 14.27947565, "ECCENTRICITY": 0.01099992, "INCLINATION": 99.0667, "RA_OF_ASC_NODE": 144.1552, "ARG_OF_PERICENTER": 257.5157, "MEAN_ANOMALY": 101.3699, "EPHEMERIS_TYPE": 0, "CLASSIFICATION_TYPE": "U", "NORAD_CAT_ID": 31511, "ELEMENT_SET_NO": 999, "REV_AT_EPOCH": 95646, "BSTAR": 0.001332998, "MEAN_MOTION_DOT": 3.477e-05, "MEAN_MOTION_DDOT": 0}, "tle": {"line1": "1 31511U 99025BXA 25335.92289762  .00003477  00000+0  13330-2 0  9991", "line2": "2 31511  99.0667 144.1552 0109999 257.5157 101.3699 14.27947565956460"}}, "geometry": {"type": "Point", "coordinates": [-35.322610069236276, -5.601120509266961]}}, {"type": "Feature", "properties": {"norad_id": 31512, "name": "FENGYUN 1C DEB", "group": "fengyun-1c-debris", "lat": -69.61067594761805, "lon": 27.703019983389698, "alt_km": 727.6857183401344, "timestamp": "2025-12-03T06:58:43.520757+00:00", "meta": {"OBJECT_NAME": "FENGYUN 1C DEB", "OBJECT_ID": "1999-025BXB", "EPOCH": "2025-12-01T12:48:52.079040", "MEAN_MOTION": 14.43760488, "ECCENTRICITY": 0.01437396, "INCLINATION": 98.8039, "RA_OF_ASC_NODE": 230.529, "ARG_OF_PERICENTER": 180.4431, "MEAN_ANOMALY": 303.4164, "EPHEMERIS_TYPE": 0, "CLASSIFICATION_TYPE": "U", "NORAD_CAT_ID": 31512, "ELEMENT_SET_NO": 999, "REV_AT_EPOCH": 65340, "BSTAR": 0.00044265612, "MEAN_MOTION_DOT": 1.654e-05, "MEAN_MOTION_DDOT": 0}, "tle": {"line1": "1 31512U 99025BXB 25335.53393610  .00001654  00000+0  44266-3 0  9995", "line2": "2 31512  98.8039 230.5290 0143739 180.4431 303.4164 14.43760488653404"}}, "geometry": {"type": "Point", "coordinates": [27.703019983389698, -69.61067594761805]}}, {"type": "Feature", "properties": {"norad_id": 31513, "name": "FENGYUN 1C DEB", "group": "fengyun-1c-debris", "lat": 56.09534039900544, "lon": -92.76801822614732, "alt_km": 760.6558563734388, "timestamp": "2025-12-03T06:58:43.520767+00:00", "meta": {"OBJECT_NAME": "FENGYUN 1C DEB", "OBJECT_ID": "1999-025BXC", "EPOCH": "2025-11-25T02:15:23.832576", "MEAN_MOTION": 14.32315683, "ECCENTRICITY": 0.00282412, "INCLINATION": 98.8622, "RA_OF_ASC_NODE": 65.435, "ARG_OF_PERICENTER": 176.3464, "MEAN_ANOMALY": 183.7931, "EPHEMERIS_TYPE": 0, "CLASSIFICATION_TYPE": "U", "NORAD_CAT_ID": 31513, "ELEMENT_SET_NO": 999, "REV_AT_EPOCH": 72616, "BSTAR": 0.0023967664, "MEAN_MOTION_DOT": 6.459e-05, "MEAN_MOTION_DDOT": 0}, "tle": {"line1": "1 31513U 99025BXC 25329.09402584  .00006459  00000+0  23968-2 0  9994", "line2": "2 31513  98.8622  65.4350 0028241 176.3464 183.7931 14.32315683726161"}}, "geometry": {"type": "Point", "coordinates": [-92.76801822614732, 56.09534039900544]}}, {"type": "Feature", "properties": {"norad_id": 31514, "name": "FENGYUN 1C DEB", "group": "fengyun-1c-debris", "lat": 67.95499752947153, "lon": -146.12360434481275, "alt_km": 804.5422446037865, "timestamp": "2025-12-03T06:58:43.520777+00:00", "meta": {"OBJECT_NAME": "FENGYUN 1C DEB", "OBJECT_ID": "1999-025BXD", "EPOCH": "2025-11-30T16:07:05.297376", "MEAN_MOTION": 14.20861654, "ECCENTRICITY": 0.00517375, "INCLINATION": 99.2458, "RA_OF_ASC_NODE": 234.8568, "ARG_OF_PERICENTER": 150.191, "MEAN_ANOMALY": 210.223, "EPHEMERIS_TYPE": 0, "CLASSIFICATION_TYPE": "U", "NORAD_CAT_ID": 31514, "ELEMENT_SET_NO": 999, "REV_AT_EPOCH": 69153, "BSTAR": 0.0016030637, "MEAN_MOTION_DOT": 3.466e-05, "MEAN_MOTION_DDOT": 0}, "tle": {"line1": "1 31514U 99025BXD 25334.67158909  .00003466  00000+0  16031-2 0  9992", "line2": "2 31514  99.2458 234.8568 0051737 150.1910 210.2230 14.20861654691530"}}, "geometry": {"type": "Point", "coordinates": [-146.12360434481275, 67.95499752947153]}}]}